NORAD_CAT_ID,OBJECT_NAME,OBJECT_TYPE,EPOCH,MEAN_MOTION,ECCENTRICITY,INCLINATION,RA_OF_ASC_NODE,ARG_OF_PERICENTER,MEAN_ANOMALY,BSTAR,MEAN_MOTION_DOT,MEAN_MOTION_DDOT,TLE_LINE0,TLE_LINE1,TLE_LINE2,SEMIMAJOR_AXIS,PERIOD,APOGEE,PERIGEE,DECAYED
53417.0,STARLINK-4484,PAYLOAD,2023-10-21 18:09:36,15.08848702,0.0001788,53.2169,59.399,91.3201,268.7996,0.00018718,2.693e-05,0.0,0 STARLINK-4484,1 53417U 22097AF  23294.75666971  .00002693  00000-0  18718-3 0  9995,2 53417  53.2169  59.3990 0001788  91.3201 268.7996 15.08848702 66836,6917.854,95.437,540.956,538.482,0.0
53417.0,STARLINK-4484,PAYLOAD,2023-10-22 02:06:33,15.08830457,0.0002323,53.2172,57.9126,91.1578,268.968,2.683e-05,1.39e-06,0.0,0 STARLINK-4484,1 53417U 22097AF  23295.08788831  .00000139  00000-0  26830-4 0  9990,2 53417  53.2172  57.9126 0002323  91.1578 268.9680 15.08830457 66881,6917.91,95.438,541.382,538.168,0.0
53417.0,STARLINK-4484,PAYLOAD,2023-10-22 13:14:16,15.08822136,0.0001676,53.2168,55.8311,101.2672,258.8509,8.3544e-06,-1.55e-06,0.0,0 STARLINK-4484,1 53417U 22097AF  23295.55157543 -.00000155  00000-0  83544-5 0  9997,2 53417  53.2168  55.8311 0001676 101.2672 258.8509 15.08822136 66958,6917.935,95.439,540.959,538.641,0.0
53417.0,STARLINK-4484,PAYLOAD,2023-10-22 14:49:39,15.08827205,0.0001356,53.2175,55.5338,93.7027,266.412,5.1244e-06,-2.06e-06,0.0,0 STARLINK-4484,1 53417U 22097AF  23295.61781344 -.00000206  00000-0  51244-5 0  9995,2 53417  53.2175  55.5338 0001356  93.7027 266.4120 15.08827205 67425,6917.919,95.438,540.723,538.846,0.0
53417.0,STARLINK-4484,PAYLOAD,2023-10-23 11:29:39,15.08842845,0.0001325,53.218,51.6676,94.5306,265.5837,-1.4553e-05,-5.2e-06,0.0,0 STARLINK-4484,1 53417U 22097AF  23296.47892820 -.00000520  00000-0 -14553-4 0  9993,2 53417  53.2180  51.6676 0001325  94.5306 265.5837 15.08842845 67093,6917.872,95.437,540.653,538.82,0.0
53417.0,STARLINK-4484,PAYLOAD,2023-10-24 11:20:26,15.08832542,0.0001796,53.2202,47.2097,96.2072,263.9124,6.1178e-05,6.86e-06,0.0,0 STARLINK-4484,1 53417U 22097AF  23297.47253409  .00000686  00000-0  61178-4 0  9994,2 53417  53.2202  47.2097 0001796  96.2072 263.9124 15.08832542 67248,6917.903,95.438,541.011,538.526,0.0
53417.0,STARLINK-4484,PAYLOAD,2023-10-24 14:31:13,15.08828889,0.0001408,53.219,46.6152,87.3345,272.7809,0.00015762,2.221e-05,0.0,0 STARLINK-4484,1 53417U 22097AF  23297.60501388  .00002221  00000-0  15762-3 0  9995,2 53417  53.2190  46.6152 0001408  87.3345 272.7809 15.08828889 67723,6917.914,95.438,540.753,538.805,0.0
53417.0,STARLINK-4484,PAYLOAD,2023-10-25 12:46:36,15.08849939,0.0001401,53.2183,42.4518,107.9988,252.1157,-1.3673e-05,-5.06e-06,0.0,0 STARLINK-4484,1 53417U 22097AF  23298.53236712 -.00000506  00000-0 -13673-4 0  9990,2 53417  53.2183  42.4518 0001401 107.9988 252.1157 15.08849939 67402,6917.85,95.437,540.684,538.746,0.0
53417.0,STARLINK-4484,PAYLOAD,2023-10-25 23:54:18,15.08837654,0.0001408,53.2187,40.3703,86.3305,273.7848,9.5274e-05,1.229e-05,0.0,0 STARLINK-4484,1 53417U 22097AF  23298.99605089  .00001229  00000-0  95274-4 0  9995,2 53417  53.2187  40.3703 0001408  86.3305 273.7848 15.08837654 67473,6917.888,95.438,540.727,538.779,0.0
53417.0,STARLINK-4484,PAYLOAD,2023-10-26 14:12:46,15.08842698,0.0001394,53.2183,37.6926,83.1618,276.9533,5.7446e-05,6.27e-06,0.0,0 STARLINK-4484,1 53417U 22097AF  23299.59221042  .00000627  00000-0  57446-4 0  9995,2 53417  53.2183  37.6926 0001394  83.1618 276.9533 15.08842698 68023,6917.872,95.437,540.701,538.773,0.0
53417.0,STARLINK-4484,PAYLOAD,2023-10-27 12:28:10,15.08853526,0.0001555,53.2174,33.5316,90.8992,269.2178,3.0088e-05,1.91e-06,0.0,0 STARLINK-4484,1 53417U 22097AF  23300.51956204  .00000191  00000-0  30088-4 0  9994,2 53417  53.2174  33.5316 0001555  90.8992 269.2178 15.08853526 67706,6917.839,95.437,540.78,538.628,0.0
53417.0,STARLINK-4484,PAYLOAD,2023-10-27 15:38:55,15.0885799,0.0001565,53.2173,32.9343,97.3176,262.7994,0.000134,1.846e-05,0.0,0 STARLINK-4484,1 53417U 22097AF  23300.65203491  .00001846  00000-0  13400-3 0  9998,2 53417  53.2173  32.9343 0001565  97.3176 262.7994 15.08857990 68181,6917.825,95.436,540.773,538.608,0.0
53417.0,STARLINK-4484,PAYLOAD,2023-10-28 12:18:57,15.0884166,0.0001472,53.2182,29.069,84.4015,275.7145,4.3711e-05,4.08e-06,0.0,0 STARLINK-4484,1 53417U 22097AF  23301.51316970  .00000408  00000-0  43711-4 0  9993,2 53417  53.2182  29.0690 0001472  84.4015 275.7145 15.08841660 67851,6917.875,95.437,540.759,538.722,0.0
53417.0,STARLINK-4484,PAYLOAD,2023-10-29 12:09:43,15.08862987,0.0001507,53.2189,24.6072,92.0374,268.0791,4.6586e-05,4.54e-06,0.0,0 STARLINK-4484,1 53417U 22097AF  23302.50675232  .00000454  00000-0  46586-4 0  9996,2 53417  53.2189  24.6072 0001507  92.0374 268.0791 15.08862987 68000,6917.81,95.436,540.718,538.633,0.0
53417.0,STARLINK-4484,PAYLOAD,2023-10-30 10:25:09,15.08829775,0.0001417,53.2194,20.4446,102.6256,257.4894,3.2673e-05,2.32e-06,0.0,0 STARLINK-4484,1 53417U 22097AF  23303.43413506  .00000232  00000-0  32673-4 0  9999,2 53417  53.2194  20.4446 0001417 102.6256 257.4894 15.08829775 68141,6917.912,95.438,540.757,538.796,0.0
53417.0,STARLINK-4484,PAYLOAD,2023-10-30 15:11:18,15.08829512,0.0001379,53.2192,19.5539,89.033,271.082,6.313e-05,7.17e-06,0.0,0 STARLINK-4484,1 53417U 22097AF  23303.63285577  .00000717  00000-0  63130-4 0  9996,2 53417  53.2192  19.5539 0001379  89.0330 271.0820 15.08829512 68633,6917.912,95.438,540.731,538.823,0.0
53417.0,STARLINK-4484,PAYLOAD,2023-10-31 11:51:19,15.08846112,0.0001461,53.2185,15.6875,90.7747,269.3413,-4.2289e-06,-3.55e-06,0.0,0 STARLINK-4484,1 53417U 22097AF  23304.49397182 -.00000355  00000-0 -42289-5 0  9990,2 53417  53.2185  15.6875 0001461  90.7747 269.3413 15.08846112 68305,6917.862,95.437,540.737,538.716,0.0
53417.0,STARLINK-4484,PAYLOAD,2023-10-31 21:23:38,15.08843755,0.0001488,53.219,13.905,92.0803,268.036,-3.7321e-05,-8.82e-06,0.0,0 STARLINK-4484,1 53417U 22097AF  23304.89141396 -.00000882  00000-0 -37321-4 0  9993,2 53417  53.2190  13.9050 0001488  92.0803 268.0360 15.08843755 68828,6917.869,95.437,540.763,538.705,0.0
53417.0,STARLINK-4484,PAYLOAD,2023-11-01 05:20:34,15.08829671,0.0001501,53.2191,12.4191,100.6423,259.4739,0.0001429,1.986e-05,0.0,0 STARLINK-4484,1 53417U 22097AF  23305.22262068  .00001986  00000-0  14290-3 0  9994,2 53417  53.2191  12.4191 0001501 100.6423 259.4739 15.08829671 68419,6917.912,95.438,540.815,538.739,0.0
53417.0,STARLINK-4484,PAYLOAD,2023-11-01 11:42:06,15.08839889,0.0001404,53.2193,11.2291,97.2557,262.8595,0.00018918,2.724e-05,0.0,0 STARLINK-4484,1 53417U 22097AF  23305.48757392  .00002724  00000-0  18918-3 0  9993,2 53417  53.2193  11.2291 0001404  97.2557 262.8595 15.08839889 68454,6917.881,95.438,540.717,538.774,0.0
53417.0,STARLINK-4484,PAYLOAD,2023-11-01 21:14:25,15.0883682,0.0001336,53.2192,9.4441,90.3461,269.7684,0.00013784,1.906e-05,0.0,0 STARLINK-4484,1 53417U 22097AF  23305.88501766  .00001906  00000-0  13784-3 0  9996,2 53417  53.2192   9.4441 0001336  90.3461 269.7684 15.08836820 68975,6917.89,95.438,540.679,538.831,0.0
53417.0,STARLINK-4484,PAYLOAD,2023-11-02 13:08:16,15.08845381,0.0001783,53.2206,6.4761,110.9036,249.2147,0.00012942,1.773e-05,0.0,0 STARLINK-4484,1 53417U 22097AF  23306.54741519  .00001773  00000-0  12942-3 0  9999,2 53417  53.2206   6.4761 0001783 110.9036 249.2147 15.08845381 69077,6917.864,95.437,540.962,538.495,0.0
53417.0,STARLINK-4484,PAYLOAD,2023-11-02 21:05:12,15.0884465,0.0001869,53.2209,4.9839,85.5402,274.5804,-2.4305e-05,-6.75e-06,0.0,0 STARLINK-4484,1 53417U 22097AF  23306.87861974 -.00000675  00000-0 -24305-4 0  9992,2 53417  53.2209   4.9839 0001869  85.5402 274.5804 15.08844650 69123,6917.866,95.437,541.024,538.438,0.0
53417.0,STARLINK-4484,PAYLOAD,2023-11-03 03:26:45,15.08840625,0.0001979,53.2206,3.7988,89.2042,270.9177,3.5457e-05,2.76e-06,0.0,0 STARLINK-4484,1 53417U 22097AF  23307.14358218  .00000276  00000-0  35457-4 0  9990,2 53417  53.2206   3.7988 0001979  89.2042 270.9177 15.08840625 68709,6917.878,95.438,541.113,538.374,0.0
53417.0,STARLINK-4484,PAYLOAD,2023-11-03 09:48:18,15.08837074,0.0001865,53.2205,2.6078,86.2908,273.8298,-4.5727e-05,-1.016e-05,0.0,0 STARLINK-4484,1 53417U 22097AF  23307.40854742 -.00001016  00000-0 -45727-4 0  9998,2 53417  53.2205   2.6078 0001865  86.2908 273.8298 15.08837074 68742,6917.889,95.438,541.045,538.464,0.0
53417.0,STARLINK-4484,PAYLOAD,2023-11-03 11:23:40,15.08848113,0.0001673,53.2198,2.3054,86.2215,273.8969,5.4818e-05,5.85e-06,0.0,0 STARLINK-4484,1 53417U 22097AF  23307.47477640  .00000585  00000-0  54818-4 0  9992,2 53417  53.2198   2.3054 0001673  86.2215 273.8969 15.08848113 69216,6917.856,95.437,540.878,538.563,0.0
53417.0,STARLINK-4484,PAYLOAD,2023-11-03 20:55:59,15.08842192,0.0001571,53.2194,0.5265,89.9322,270.1851,3.8479e-05,3.24e-06,0.0,0 STARLINK-4484,1 53417U 22097AF  23307.87222002  .00000324  00000-0  38479-4 0  9992,2 53417  53.2194   0.5265 0001571  89.9322 270.1851 15.08842192 68818,6917.874,95.437,540.825,538.652,0.0
53417.0,STARLINK-4484,PAYLOAD,2023-11-04 11:14:27,15.08845973,0.0001376,53.2184,357.849,101.5814,258.5333,-8.9765e-06,-4.31e-06,0.0,0 STARLINK-4484,1 53417U 22097AF  23308.46837864 -.00000431  00000-0 -89765-5 0  9992,2 53417  53.2184 357.8490 0001376 101.5814 258.5333 15.08845973 69361,6917.862,95.437,540.679,538.775,0.0
53417.0,STARLINK-4484,PAYLOAD,2023-11-04 20:46:46,15.08842705,0.000129,53.2184,356.0632,96.1701,263.9438,-4.5256e-05,-1.008e-05,0.0,0 STARLINK-4484,1 53417U 22097AF  23308.86582085 -.00001008  00000-0 -45256-4 0  9995,2 53417  53.2184 356.0632 0001290  96.1701 263.9438 15.08842705 69422,6917.872,95.437,540.63,538.845,0.0
53417.0,STARLINK-4484,PAYLOAD,2023-11-05 03:08:19,15.08832301,0.0001348,53.2183,354.8736,85.7413,274.3733,0.00012089,1.636e-05,0.0,0 STARLINK-4484,1 53417U 22097AF  23309.13078345  .00001636  00000-0  12089-3 0  9997,2 53417  53.2183 354.8736 0001348  85.7413 274.3733 15.08832301 69009,6917.904,95.438,540.701,538.836,0.0
